{"type": "FeatureCollection", "features": [ {"type": "Feature", "properties": {"norad_id": 30434, "name": "FENGYUN 1C DEB", "group": "fengyun-1c-debris", "lat": -52.657574365759004, "lon": -23.451074177109568, "alt_km": 875.7358935307975, "timestamp": "2025-12-03T10:52:57.729926+00:00", "meta": {"OBJECT_NAME": "FENGYUN 1C DEB", "OBJECT_ID": "1999-025AEV", "EPOCH": "2025-12-02T13:18:58.074048", "MEAN_MOTION": 13.90636361, "ECCENTRICITY": 0.01207741, "INCLINATION": 98.9983, "RA_OF_ASC_NODE": 323.6924, "ARG_OF_PERICENTER": 259.118, "MEAN_ANOMALY": 230.0552, "EPHEMERIS_TYPE": 0, "CLASSIFICATION_TYPE": "U", "NORAD_CAT_ID": 30434, "ELEMENT_SET_NO": 999, "REV_AT_EPOCH": 95565, "BSTAR": 0.00047351406, "MEAN_MOTION_DOT": 5.82e-06, "MEAN_MOTION_DDOT": 0}, "tle": {"line1": "1 30434U 99025AEV 25336.55483882  .00000582  00000+0  47351-3 0  9998", "line2": "2 30434  98.9983 323.6924 0120774 259.1180 230.0552 13.90636361955653"}}, "geometry": {"type": "Point", "coordinates": [-23.451074177109568, -52.657574365759004]}}, {"type": "Feature", "properties": {"norad_id": 30435, "name": "FENGYUN 1C DEB", "group": "fengyun-1c-debris", "lat": -16.267126891624105, "lon": -33.18604140391112, "alt_km": 1105.43902720172, "timestamp": "2025-12-03T10:52:57.729937+00:00", "meta": {"OBJECT_NAME": "FENGYUN 1C DEB", "OBJECT_ID": "1999-025AEW", "EPOCH": "2025-12-02T16:08:11.992128", "MEAN_MOTION": 13.79565678, "ECCENTRICITY": 0.0207028, "INCLINATION": 99.0161, "RA_OF_ASC_NODE": 323.4143, "ARG_OF_PERICENTER": 139.114, "MEAN_ANOMALY": 288.4712, "EPHEMERIS_TYPE": 0, "CLASSIFICATION_TYPE": "U", "NORAD_CAT_ID": 30435, "ELEMENT_SET_NO": 999, "REV_AT_EPOCH": 94021, "BSTAR": 0.0019548, "MEAN_MOTION_DOT": 2.326e-05, "MEAN_MOTION_DDOT": 0}, "tle": {"line1": "1 30435U 99025AEW 25336.67236102  .00002326  00000+0  19548-2 0  9997", "line2": "2 30435  99.0161 323.4143 0207028 139.1140 288.4712 13.79565678940216"}}, "geometry": {"type": "Point", "coordinates": [-33.18604140391112, -16.267126891624105]}}, {"type": "Feature", "properties": {"norad_id": 30436, "name": "FENGYUN 1C DEB", "group": "fengyun-1c-debris", "lat": 50.244623657668754, "lon": -138.40372541831647, "alt_km": 836.6612107037645, "timestamp": "2025-12-03T10:52:57.729948+00:00", "meta": {"OBJECT_NAME": "FENGYUN 1C DEB", "OBJECT_ID": "1999-025AEX", "EPOCH": "2025-12-03T04:35:52.473984", "MEAN_MOTION": 14.2215177, "ECCENTRICITY": 0.0096713, "INCLINATION": 98.4255, "RA_OF_ASC_NODE": 231.6096, "ARG_OF_PERICENTER": 161.8396, "MEAN_ANOMALY": 350.3479, "EPHEMERIS_TYPE": 0, "CLASSIFICATION_TYPE": "U", "NORAD_CAT_ID": 30436, "ELEMENT_SET_NO": 999, "REV_AT_EPOCH": 96301, "BSTAR": 0.0025886, "MEAN_MOTION_DOT": 5.979e-05, "MEAN_MOTION_DDOT": 0}, "tle": {"line1": "1 30436U 99025AEX 25337.19157956  .00005979  00000+0  25886-2 0  9994", "line2": "2 30436  98.4255 231.6096 0096713 161.8396 350.3479 14.22151770963018"}}, "geometry": {"type": "Point", "coordinates": [-138.40372541831647, 50.244623657668754]}}, {"type": "Feature", "properties": {"norad_id": 30437, "name": "FENGYUN 1C DEB", "group": "fengyun-1c-debris", "lat": 68.49976877511526, "lon": -160.42313321591664, "alt_km": 576.0154292839607, "timestamp": "2025-12-03T10:52:57.729959+00:00", "meta": {"OBJECT_NAME": "FENGYUN 1C DEB", "OBJECT_ID": "1999-025AEY", "EPOCH": "2025-12-03T00:59:50.402112", "MEAN_MOTION": 14.87362129, "ECCENTRICITY": 0.0035927, "INCLINATION": 98.9227, "RA_OF_ASC_NODE": 355.6088, "ARG_OF_PERICENTER": 132.0895, "MEAN_ANOMALY": 293.4895, "EPHEMERIS_TYPE": 0, "CLASSIFICATION_TYPE": "U", "NORAD_CAT_ID": 30437, "ELEMENT_SET_NO": 999, "REV_AT_EPOCH": 99043, "BSTAR": 0.0029737, "MEAN_MOTION_DOT": 0.00027217, "MEAN_MOTION_DDOT": 0}, "tle": {"line1": "1 30437U 99025AEY 25337.04155558  .00027217  00000+0  29737-2 0  9993", "line2": "2 30437  98.9227 355.6088 0035927 132.0895 293.4895 14.87362129990433"}}, "geometry": {"type": "Point", "coordinates": [-160.42313321591664, 68.49976877511526]}}, {"type": "Feature", "properties": {"norad_id": 30438, "name": "FENGYUN 1C DEB", "group": "fengyun-1c-debris", "lat": -55.08336269442882, "lon": 162.25197519249383, "alt_km": 838.4285314302397, "timestamp": "2025-12-03T10:52:57.729970+00:00", "meta": {"OBJECT_NAME": "FENGYUN 1C DEB", "OBJECT_ID": "1999-025AEZ", "EPOCH": "2025-12-02T11:19:32.887488", "MEAN_MOTION": 13.92044385, "ECCENTRICITY": 0.01343987, "INCLINATION": 98.7509, "RA_OF_ASC_NODE": 354.0727, "ARG_OF_PERICENTER": 214.9313, "MEAN_ANOMALY": 144.2975, "EPHEMERIS_TYPE": 0, "CLASSIFICATION_TYPE": "U", "NORAD_CAT_ID": 30438, "ELEMENT_SET_NO": 999, "REV_AT_EPOCH": 95163, "BSTAR": 0.0017175759, "MEAN_MOTION_DOT": 2.322e-05, "MEAN_MOTION_DDOT": 0}, "tle": {"line1": "1 30438U 99025AEZ 25336.47190842  .00002322  00000+0  17176-2 0  9999", "line2": "2 30438  98.7509 354.0727 0134398 214.9313 144.2975 13.92044385951632"}}, "geometry": {"type": "Point", "coordinates": [162.25197519249383, -55.08336269442882]}}, {"type": "Feature", "properties": {"norad_id": 30439, "name": "FENGYUN 1C DEB", "group": "fengyun-1c-debris", "lat": -35.654617179684344, "lon": -4.215967139074212, "alt_km": 847.5873538674223, "timestamp": "2025-12-03T10:52:57.729980+00:00", "meta": {"OBJECT_NAME": "FENGYUN 1C DEB", "OBJECT_ID": "1999-025AFA", "EPOCH": "2025-12-03T01:08:17.716128", "MEAN_MOTION": 14.08814224, "ECCENTRICITY": 0.0039269, "INCLINATION": 98.7501, "RA_OF_ASC_NODE": 349.0467, "ARG_OF_PERICENTER": 4.3558, "MEAN_ANOMALY": 61.8164, "EPHEMERIS_TYPE": 0, "CLASSIFICATION_TYPE": "U", "NORAD_CAT_ID": 30439, "ELEMENT_SET_NO": 999, "REV_AT_EPOCH": 96655, "BSTAR": 0.00064776, "MEAN_MOTION_DOT": 1.083e-05, "MEAN_MOTION_DDOT": 0}, "tle": {"line1": "1 30439U 99025AFA 25337.04742727  .00001083  00000+0  64776-3 0  9991", "line2": "2 30439  98.7501 349.0467 0039269   4.3558  61.8164 14.08814224966559"}}, "geometry": {"type": "Point", "coordinates": [-4.215967139074212, -35.654617179684344]}}, {"type": "Feature", "properties": {"norad_id": 30441, "name": "FENGYUN 1C DEB", "group": "fengyun-1c-debris", "lat": -64.92149665320729, "lon": 87.27790196717898, "alt_km": 846.9217013398029, "timestamp": "2025-12-03T10:52:57.729991+00:00", "meta": {"OBJECT_NAME": "FENGYUN 1C DEB", "OBJECT_ID": "1999-025AFC", "EPOCH": "2025-12-02T19:30:36.493632", "MEAN_MOTION": 13.7765777, "ECCENTRICITY": 0.0183474, "INCLINATION": 99.1355, "RA_OF_ASC_NODE": 66.5508, "ARG_OF_PERICENTER": 284.1019, "MEAN_ANOMALY": 73.9804, "EPHEMERIS_TYPE": 0, "CLASSIFICATION_TYPE": "U", "NORAD_CAT_ID": 30441, "ELEMENT_SET_NO": 999, "REV_AT_EPOCH": 94733, "BSTAR": 0.00070979, "MEAN_MOTION_DOT": 7.58e-06, "MEAN_MOTION_DDOT": 0}, "tle": {"line1": "1 30441U 99025AFC 25336.81292238  .00000758  00000+0  70979-3 0  9995", "line2": "2 30441  99.1355  66.5508 0183474 284.1019  73.9804 13.77657770947335"}}, "geometry": {"type": "Point", "coordinates": [87.27790196717898, -64.92149665320729]}}, {"type": "Feature", "properties": {"norad_id": 30442, "name": "FENGYUN 1C DEB", "group": "fengyun-1c-debris", "lat": 79.4190940226238, "lon": 14.218347002519002, "alt_km": 813.7545896218817, "timestamp": "2025-12-03T10:52:57.730002+00:00", "meta": {"OBJECT_NAME": "FENGYUN 1C DEB", "OBJECT_ID": "1999-025AFD", "EPOCH": "2025-12-01T04:41:41.613792", "MEAN_MOTION": 14.28421578, "ECCENTRICITY": 0.0053846, "INCLINATION": 98.8663, "RA_OF_ASC_NODE": 68.6056, "ARG_OF_PERICENTER": 321.7021, "MEAN_ANOMALY": 38.0341, "EPHEMERIS_TYPE": 0, "CLASSIFICATION_TYPE": "U", "NORAD_CAT_ID": 30442, "ELEMENT_SET_NO": 999, "REV_AT_EPOCH": 96997, "BSTAR": 0.0024337, "MEAN_MOTION_DOT": 6.141e-05, "MEAN_MOTION_DDOT": 0}, "tle": {"line1": "1 30442U 99025AFD 25335.19562053  .00006141  00000+0  24337-2 0  9999", "line2": "2 30442  98.8663  68.6056 0053846 321.7021  38.0341 14.28421578969979"}}, "geometry": {"type": "Point", "coordinates": [14.218347002519002, 79.4190940226238]}}, {"type": "Feature", "properties": {"norad_id": 30443, "name": "FENGYUN 1C DEB", "group": "fengyun-1c-debris", "lat": -23.219488547383744, "lon": -71.85369994704217, "alt_km": 757.1615917508016, "timestamp": "2025-12-03T10:52:57.730012+00:00", "meta": {"OBJECT_NAME": "FENGYUN 1C DEB", "OBJECT_ID": "1999-025AFE", "EPOCH": "2025-12-02T19:56:48.787008", "MEAN_MOTION": 14.3655413, "ECCENTRICITY": 0.0028631, "INCLINATION": 98.8474, "RA_OF_ASC_NODE": 283.6759, "ARG_OF_PERICENTER": 6.2925, "MEAN_ANOMALY": 353.8615, "EPHEMERIS_TYPE": 0, "CLASSIFICATION_TYPE": "U", "NORAD_CAT_ID": 30443, "ELEMENT_SET_NO": 999, "REV_AT_EPOCH": 97291, "BSTAR": 0.0033536, "MEAN_MOTION_DOT": 9.866e-05, "MEAN_MOTION_DDOT": 0}, "tle": {"line1": "1 30443U 99025AFE 25336.83112022  .00009866  00000+0  33536-2 0  9997", "line2": "2 30443  98.8474 283.6759 0028631   6.2925 353.8615 14.36554130972911"}}, "geometry": {"type": "Point", "coordinates": [-71.85369994704217, -23.219488547383744]}}, {"type": "Feature", "properties": {"norad_id": 30445, "name": "FENGYUN 1C DEB", "group": "fengyun-1c-debris", "lat": -78.89530605158203, "lon": -19.22236879371407, "alt_km": 784.7721288990897, "timestamp": "2025-12-03T10:52:57.730023+00:00", "meta": {"OBJECT_NAME": "FENGYUN 1C DEB", "OBJECT_ID": "1999-025AFG", "EPOCH": "2025-12-02T20:20:50.042688", "MEAN_MOTION": 14.48646565, "ECCENTRICITY": 0.0106513, "INCLINATION": 98.8332, "RA_OF_ASC_NODE": 287.7468, "ARG_OF_PERICENTER": 47.8116, "MEAN_ANOMALY": 313.2059, "EPHEMERIS_TYPE": 0, "CLASSIFICATION_TYPE": "U", "NORAD_CAT_ID": 30445, "ELEMENT_SET_NO": 999, "REV_AT_EPOCH": 99041, "BSTAR": 0.00099173, "MEAN_MOTION_DOT": 3.96e-05, "MEAN_MOTION_DDOT": 0}, "tle": {"line1": "1 30445U 99025AFG 25336.84780142  .00003960  00000+0  99173-3 0  9993", "line2": "2 30445  98.8332 287.7468 0106513  47.8116 313.2059 14.48646565990411"}}, "geometry": {"type": "Point", "coordinates": [-19.22236879371407, -78.89530605158203]}}]}